[{"OBJECT_NAME":"STARLINK-6366","OBJECT_ID":"2023-099BE","EPOCH":"2026-03-09T11:16:15.688128","MEAN_MOTION":15.02523908,"ECCENTRICITY":0.00012362,"INCLINATION":43.0024,"RA_OF_ASC_NODE":211.0968,"ARG_OF_PERICENTER":271.2637,"MEAN_ANOMALY":88.8064,"EPHEMERIS_TYPE":0,"CLASSIFICATION_TYPE":"U","NORAD_CAT_ID":57380,"ELEMENT_SET_NO":999,"REV_AT_EPOCH":14726,"BSTAR":-2.6420231e-5,"MEAN_MOTION_DOT":-5.6e-6,"MEAN_MOTION_DDOT":0},{"OBJECT_NAME":"CZ-6A DEB","OBJECT_ID":"2022-151VS","EPOCH":"2026-03-09T04:51:15.060960","MEAN_MOTION":14.9137966,"ECCENTRICITY":0.00559122,"INCLINATION":98.6335,"RA_OF_ASC_NODE":146.9052,"ARG_OF_PERICENTER":180.6585,"MEAN_ANOMALY":179.4567,"EPHEMERIS_TYPE":0,"CLASSIFICATION_TYPE":"U","NORAD_CAT_ID":55201,"ELEMENT_SET_NO":999,"REV_AT_EPOCH":17149,"BSTAR":0.0042126159,"MEAN_MOTION_DOT":0.00043496,"MEAN_MOTION_DDOT":0}]
